OBJECT_NAME,OBJECT_ID,EPOCH,MEAN_MOTION,ECCENTRICITY,INCLINATION,RA_OF_ASC_NODE,ARG_OF_PERICENTER,MEAN_ANOMALY,EPHEMERIS_TYPE,CLASSIFICATION_TYPE,NORAD_CAT_ID,ELEMENT_SET_NO,REV_AT_EPOCH,BSTAR,MEAN_MOTION_DOT,MEAN_MOTION_DDOT
HODOYOSHI-4,2014-033B,2026-06-05T17:42:13.754016,14.88101788,.0023476,97.5450,342.1128,347.5601,12.5034,0,U,40011,999,64710,.18429E-3,.1651E-4,0
DEIMOS-2,2014-033D,2026-06-05T17:28:22.515168,14.93691048,.0001937,97.5835,31.6186,59.7568,300.3844,0,U,40013,999,63601,.15483E-3,.1583E-4,0
HODOYOSHI-3,2014-033F,2026-06-05T11:07:38.794944,14.85363664,.003369,97.6409,319.9773,35.4811,324.8636,0,U,40015,999,64588,.14143E-3,.1176E-4,0
SPOT 7,2014-034A,2026-06-05T16:12:33.124896,14.60948670,.0001196,98.0629,219.4631,82.8288,277.3049,0,U,40053,999,63545,.13031E-3,.593E-5,0
SKYSAT-B,2014-037D,2026-06-05T10:11:26.342016,14.87996518,.0004756,98.3832,114.7197,329.7638,30.3302,0,U,40072,999,64421,.17931E-3,.1584E-4,0
WORLDVIEW-3 (WV-3),2014-048A,2026-06-05T17:06:12.052800,14.85002768,.0001822,97.8567,231.7039,43.3451,316.7907,0,U,40115,999,64020,.12064E-3,.976E-5,0
GAOFEN-2,2014-049A,2026-06-05T16:33:18.972288,14.80888642,.0005865,98.0109,220.9077,272.9205,87.1336,0,U,40118,999,63753,.15046E-3,.1109E-4,0
YAOGAN-21,2014-053A,2026-06-05T18:07:16.167072,15.26199568,.0009647,97.1477,197.4829,125.8714,234.3423,0,U,40143,999,65321,.3032E-3,.7785E-4,0
YAOGAN-22,2014-063A,2026-06-05T16:50:50.896608,13.15530685,.0006077,100.7711,307.7851,211.6408,148.4338,0,U,40275,999,55830,.29481E-4,-.36E-6,0
ASNARO,2014-070A,2026-06-05T15:12:43.165152,15.19254097,.0004438,97.3450,233.0622,204.6165,155.4858,0,U,40298,999,64225,.33445E-3,.6986E-4,0
YAOGAN-24,2014-072A,2026-06-05T16:40:29.495712,14.76209222,.0012843,98.1479,293.9363,304.4562,55.5433,0,U,40310,999,62202,.1631E-3,.1076E-4,0
CBERS 4,2014-079A,2026-06-05T17:53:29.953248,14.35506795,.0002071,98.3531,213.9356,74.6793,285.4622,0,U,40336,999,60231,.12869E-3,.328E-5,0
YAOGAN-26,2014-088A,2026-06-05T16:26:59.538048,15.46859771,.0006673,97.0647,157.1681,92.3389,267.8625,0,U,40362,999,63592,.26024E-3,.13003E-3,0
SMAP,2015-003A,2026-06-05T15:51:50.804352,14.63356291,.0001258,98.1276,163.9189,91.3960,268.7387,0,U,40376,999,60593,.10441E-3,.492E-5,0
KOMPSAT-3A,2015-014A,2026-06-05T17:07:37.206048,15.53458408,.00555,97.6888,147.2422,216.3962,143.3512,0,U,40536,999,62003,.39445E-3,.26672E-3,0
SENTINEL-2A,2015-028A,2026-06-05T16:13:46.091424,14.30821101,.0001072,98.5683,231.6907,83.3008,276.8296,0,U,40697,999,57208,.12005E-3,.271E-5,0
GAOFEN-8,2015-030A,2026-06-05T16:39:44.021664,15.45519598,.0007906,97.6910,349.3785,229.7325,130.3233,0,U,40701,999,60967,.40887E-3,.19569E-3,0
CARBONITE 1 (CBNT-1),2015-032D,2026-06-05T17:11:57.088608,14.83551566,.0013991,97.6503,335.2639,338.4430,21.6194,0,U,40718,999,58764,.25742E-3,.2072E-4,0
YAOGAN-27,2015-040A,2026-06-05T16:50:05.709408,13.16070457,.0007442,100.1152,143.5831,239.5500,120.4878,0,U,40878,999,51615,.10016E-2,.338E-5,0
GAOFEN-9 01,2015-047A,2026-06-05T17:25:45.183360,14.82861681,.0027475,97.6285,192.9414,174.4854,185.6668,0,U,40894,999,57849,.13893E-3,.1081E-4,0
YAOGAN-28,2015-064A,2026-06-05T17:26:14.548992,15.27265860,.0009657,97.3066,295.2240,225.4935,134.5515,0,U,41026,999,58893,.29091E-3,.771E-4,0
YAOGAN-29,2015-069A,2026-06-05T16:59:48.776352,14.83076471,.0002974,98.0027,185.3230,72.9803,287.1736,0,U,41038,999,56892,.10915E-3,.834E-5,0
KENT RIDGE 1,2015-077B,2026-06-05T04:18:09.817056,15.23056150,.0008325,14.9812,355.2827,68.6324,291.4886,0,U,41167,999,57926,.14998E-3,.4407E-4,0
GAOFEN-4,2015-083A,2026-06-05T15:43:47.184672,1.00269735,.0004332,0.3275,83.7736,108.9975,42.9536,0,U,41194,999,3841,0,-.322E-5,0
JASON-3,2016-002A,2026-06-05T17:46:19.358112,12.87627745,.0008608,66.0390,149.9007,273.2224,86.7810,0,U,41240,999,48577,.32995E-4,-.54E-6,0
SENTINEL-3A,2016-011A,2026-06-05T17:09:59.084352,14.26736806,.0001319,98.6251,224.2632,105.3786,254.7540,0,U,41335,999,53642,.68446E-4,.122E-5,0
ZIYUAN 3-02 (ZY 3-02),2016-033A,2026-06-05T16:19:09.998976,15.21366268,.0011877,97.3832,232.6740,335.1481,24.9182,0,U,41556,999,55623,.27133E-3,.6024E-4,0
CARTOSAT-2C,2016-040A,2026-06-05T14:24:18.002304,15.19223374,.0009719,97.4487,216.7370,168.3871,191.7590,0,U,41599,999,55195,.22234E-3,.4619E-4,0
SKYSAT-C1,2016-040C,2026-06-05T08:40:06.537792,15.36091183,.000427,96.9566,188.7236,81.1360,279.0369,0,U,41601,999,55605,.26083E-3,.9098E-4,0
LAPAN-A3,2016-040E,2026-06-05T16:52:58.696896,15.33029886,.0011966,97.1489,153.2274,62.4604,297.7853,0,U,41603,999,55305,.1174E-3,.3678E-4,0
GAOFEN-3,2016-049A,2026-06-05T16:56:36.242592,14.42213598,.0001149,98.4011,164.6656,96.6696,263.4625,0,U,41727,999,51699,.10783E-4,-.8E-7,0
