HODOYOSHI-4             
1 40011U 14033B   26156.73765919  .00001651  00000+0  18429-3 0  9993
2 40011  97.5450 342.1128 0023476 347.5601  12.5034 14.88101788647106
DEIMOS-2                
1 40013U 14033D   26156.72803837  .00001583  00000+0  15483-3 0  9997
2 40013  97.5835  31.6186 0001937  59.7568 300.3844 14.93691048636015
HODOYOSHI-3             
1 40015U 14033F   26156.46364346  .00001176  00000+0  14143-3 0  9997
2 40015  97.6409 319.9773 0033690  35.4811 324.8636 14.85363664645888
SPOT 7                  
1 40053U 14034A   26156.67538339  .00000593  00000+0  13031-3 0  9995
2 40053  98.0629 219.4631 0001196  82.8288 277.3049 14.60948670635457
SKYSAT-B                
1 40072U 14037D   26156.42461044  .00001584  00000+0  17931-3 0  9994
2 40072  98.3832 114.7197 0004756 329.7638  30.3302 14.87996518644214
WORLDVIEW-3 (WV-3)      
1 40115U 14048A   26156.71263950  .00000976  00000+0  12064-3 0  9998
2 40115  97.8567 231.7039 0001822  43.3451 316.7907 14.85002768640209
GAOFEN-2                
1 40118U 14049A   26156.68980292  .00001109  00000+0  15046-3 0  9995
2 40118  98.0109 220.9077 0005865 272.9205  87.1336 14.80888642637532
YAOGAN-21               
1 40143U 14053A   26156.75504823  .00007785  00000+0  30320-3 0  9996
2 40143  97.1477 197.4829 0009647 125.8714 234.3423 15.26199568653213
YAOGAN-22               
1 40275U 14063A   26156.70197797 -.00000036  00000+0  29481-4 0  9996
2 40275 100.7711 307.7851 0006077 211.6408 148.4338 13.15530685558309
ASNARO                  
1 40298U 14070A   26156.63383293  .00006986  00000+0  33445-3 0  9992
2 40298  97.3450 233.0622 0004438 204.6165 155.4858 15.19254097642252
YAOGAN-24               
1 40310U 14072A   26156.69478583  .00001076  00000+0  16310-3 0  9999
2 40310  98.1479 293.9363 0012843 304.4562  55.5433 14.76209222622027
CBERS 4                 
1 40336U 14079A   26156.74548557  .00000328  00000+0  12869-3 0  9993
2 40336  98.3531 213.9356 0002071  74.6793 285.4622 14.35506795602318
YAOGAN-26               
1 40362U 14088A   26156.68541132  .00013003  00000+0  26024-3 0  9999
2 40362  97.0647 157.1681 0006673  92.3389 267.8625 15.46859771635929
SMAP                    
1 40376U 15003A   26156.66100468  .00000492  00000+0  10441-3 0  9997
2 40376  98.1276 163.9189 0001258  91.3960 268.7387 14.63356291605930
KOMPSAT-3A              
1 40536U 15014A   26156.71362507  .00026672  00000+0  39445-3 0  9990
2 40536  97.6888 147.2422 0055500 216.3962 143.3512 15.53458408620035
SENTINEL-2A             
1 40697U 15028A   26156.67622791  .00000271  00000+0  12005-3 0  9992
2 40697  98.5683 231.6907 0001072  83.3008 276.8296 14.30821101572080
GAOFEN-8                
1 40701U 15030A   26156.69425951  .00019569  00000+0  40887-3 0  9991
2 40701  97.6910 349.3785 0007906 229.7325 130.3233 15.45519598609672
CARBONITE 1 (CBNT-1)    
1 40718U 15032D   26156.71663297  .00002072  00000+0  25742-3 0  9995
2 40718  97.6503 335.2639 0013991 338.4430  21.6194 14.83551566587648
YAOGAN-27               
1 40878U 15040A   26156.70145497  .00000338  00000+0  10016-2 0  9997
2 40878 100.1152 143.5831 0007442 239.5500 120.4878 13.16070457516157
GAOFEN-9 01             
1 40894U 15047A   26156.72621740  .00001081  00000+0  13893-3 0  9997
2 40894  97.6285 192.9414 0027475 174.4854 185.6668 14.82861681578490
YAOGAN-28               
1 41026U 15064A   26156.72655728  .00007710  00000+0  29091-3 0  9999
2 41026  97.3066 295.2240 0009657 225.4935 134.5515 15.27265860588936
YAOGAN-29               
1 41038U 15069A   26156.70820343  .00000834  00000+0  10915-3 0  9997
2 41038  98.0027 185.3230 0002974  72.9803 287.1736 14.83076471568922
KENT RIDGE 1            
1 41167U 15077B   26156.17928029  .00004407  00000+0  14998-3 0  9995
2 41167  14.9812 355.2827 0008325  68.6324 291.4886 15.23056150579260
GAOFEN-4                
1 41194U 15083A   26156.65540723 -.00000322  00000+0  00000+0 0  9994
2 41194   0.3275  83.7736 0004332 108.9975  42.9536  1.00269735 38411
JASON-3                 
1 41240U 16002A   26156.74050183 -.00000054  00000+0  32995-4 0  9999
2 41240  66.0390 149.9007 0008608 273.2224  86.7810 12.87627745485771
SENTINEL-3A             
1 41335U 16011A   26156.71526718  .00000122  00000+0  68446-4 0  9998
2 41335  98.6251 224.2632 0001319 105.3786 254.7540 14.26736806536424
ZIYUAN 3-02 (ZY 3-02)   
1 41556U 16033A   26156.67997684  .00006024  00000+0  27133-3 0  9990
2 41556  97.3832 232.6740 0011877 335.1481  24.9182 15.21366268556235
CARTOSAT-2C             
1 41599U 16040A   26156.60020836  .00004619  00000+0  22234-3 0  9999
2 41599  97.4487 216.7370 0009719 168.3871 191.7590 15.19223374551959
SKYSAT-C1               
1 41601U 16040C   26156.36118678  .00009098  00000+0  26083-3 0  9990
2 41601  96.9566 188.7236 0004270  81.1360 279.0369 15.36091183556056
LAPAN-A3                
1 41603U 16040E   26156.70345714  .00003678  00000+0  11740-3 0  9995
2 41603  97.1489 153.2274 0011966  62.4604 297.7853 15.33029886553057
GAOFEN-3                
1 41727U 16049A   26156.70597503 -.00000008  00000+0  10783-4 0  9998
2 41727  98.4011 164.6656 0001149  96.6696 263.4625 14.42213598516994
